[{"OBJECT_NAME":"ONEWEB-0206","OBJECT_ID":"2021-031T","EPOCH":"2025-09-25T05:18:05.632992","MEAN_MOTION":13.14502525,"ECCENTRICITY":0.00015748,"INCLINATION":87.9082,"RA_OF_ASC_NODE":342.4424,"ARG_OF_PERICENTER":97.873,"MEAN_ANOMALY":262.2579,"EPHEMERIS_TYPE":0,"CLASSIFICATION_TYPE":"U","NORAD_CAT_ID":48227,"ELEMENT_SET_NO":999,"REV_AT_EPOCH":21341,"BSTAR":-0.0002523793,"MEAN_MOTION_DOT":-8.1e-7,"MEAN_MOTION_DDOT":0},{"OBJECT_NAME":"ONEWEB-0182","OBJECT_ID":"2021-031U","EPOCH":"2025-09-25T03:21:38.557440","MEAN_MOTION":13.14504286,"ECCENTRICITY":0.00019669,"INCLINATION":87.9074,"RA_OF_ASC_NODE":342.5009,"ARG_OF_PERICENTER":93.9713,"MEAN_ANOMALY":266.1641,"EPHEMERIS_TYPE":0,"CLASSIFICATION_TYPE":"U","NORAD_CAT_ID":48228,"ELEMENT_SET_NO":999,"REV_AT_EPOCH":21361,"BSTAR":0.00031737823,"MEAN_MOTION_DOT":1.3e-6,"MEAN_MOTION_DDOT":0},{"OBJECT_NAME":"ONEWEB-0186","OBJECT_ID":"2021-031V","EPOCH":"2025-09-25T05:27:13.500576","MEAN_MOTION":13.14504901,"ECCENTRICITY":0.00019292,"INCLINATION":87.9084,"RA_OF_ASC_NODE":342.4473,"ARG_OF_PERICENTER":101.8403,"MEAN_ANOMALY":258.2943,"EPHEMERIS_TYPE":0,"CLASSIFICATION_TYPE":"U","NORAD_CAT_ID":48229,"ELEMENT_SET_NO":999,"REV_AT_EPOCH":21357,"BSTAR":-0.00017083885,"MEAN_MOTION_DOT":-5.1e-7,"MEAN_MOTION_DDOT":0},{"OBJECT_NAME":"ONEWEB-0181","OBJECT_ID":"2021-031W","EPOCH":"2025-09-25T03:05:39.836256","MEAN_MOTION":13.14503596,"ECCENTRICITY":0.00019066,"INCLINATION":87.9064,"RA_OF_ASC_NODE":342.5353,"ARG_OF_PERICENTER":105.3575,"MEAN_ANOMALY":254.7766,"EPHEMERIS_TYPE":0,"CLASSIFICATION_TYPE":"U","NORAD_CAT_ID":48230,"ELEMENT_SET_NO":999,"REV_AT_EPOCH":21341,"BSTAR":0.00066827989,"MEAN_MOTION_DOT":2.61e-6,"MEAN_MOTION_DDOT":0},{"OBJECT_NAME":"ONEWEB-0188","OBJECT_ID":"2021-031X","EPOCH":"2025-09-25T05:50:03.377760","MEAN_MOTION":13.1450251,"ECCENTRICITY":0.00019128,"INCLINATION":87.9073,"RA_OF_ASC_NODE":342.5066,"ARG_OF_PERICENTER":99.019,"MEAN_ANOMALY":261.1156,"EPHEMERIS_TYPE":0,"CLASSIFICATION_TYPE":"U","NORAD_CAT_ID":48231,"ELEMENT_SET_NO":999,"REV_AT_EPOCH":21333,"BSTAR":-0.00087321562,"MEAN_MOTION_DOT":-3.11e-6,"MEAN_MOTION_DDOT":0},{"OBJECT_NAME":"ONEWEB-0220","OBJECT_ID":"2021-031Y","EPOCH":"2025-09-25T06:47:10.463136","MEAN_MOTION":13.14502347,"ECCENTRICITY":0.00020947,"INCLINATION":87.908,"RA_OF_ASC_NODE":342.4379,"ARG_OF_PERICENTER":100.3829,"MEAN_ANOMALY":259.7537,"EPHEMERIS_TYPE":0,"CLASSIFICATION_TYPE":"U","NORAD_CAT_ID":48232,"ELEMENT_SET_NO":999,"REV_AT_EPOCH":21360,"BSTAR":0.00064077301,"MEAN_MOTION_DOT":2.5e-6,"MEAN_MOTION_DDOT":0},{"OBJECT_NAME":"ONEWEB-0165","OBJECT_ID":"2021-031Z","EPOCH":"2025-09-24T11:22:33.212064","MEAN_MOTION":13.145037,"ECCENTRICITY":0.00020233,"INCLINATION":87.9064,"RA_OF_ASC_NODE":342.637,"ARG_OF_PERICENTER":104.0575,"MEAN_ANOMALY":256.078,"EPHEMERIS_TYPE":0,"CLASSIFICATION_TYPE":"U","NORAD_CAT_ID":48233,"ELEMENT_SET_NO":999,"REV_AT_EPOCH":21345,"BSTAR":-0.00024006206,"MEAN_MOTION_DOT":-7.6e-7,"MEAN_MOTION_DDOT":0},{"OBJECT_NAME":"ONEWEB-0199","OBJECT_ID":"2021-031AA","EPOCH":"2025-09-25T03:26:12.113664","MEAN_MOTION":13.14501592,"ECCENTRICITY":0.00016942,"INCLINATION":87.9074,"RA_OF_ASC_NODE":342.4712,"ARG_OF_PERICENTER":97.4226,"MEAN_ANOMALY":262.7096,"EPHEMERIS_TYPE":0,"CLASSIFICATION_TYPE":"U","NORAD_CAT_ID":48234,"ELEMENT_SET_NO":999,"REV_AT_EPOCH":21344,"BSTAR":0.00021559156,"MEAN_MOTION_DOT":9.3e-7,"MEAN_MOTION_DDOT":0},{"OBJECT_NAME":"ONEWEB-0203","OBJECT_ID":"2021-031AB","EPOCH":"2025-09-25T05:02:06.906624","MEAN_MOTION":13.14503108,"ECCENTRICITY":0.0001611,"INCLINATION":87.9073,"RA_OF_ASC_NODE":342.4593,"ARG_OF_PERICENTER":105.9412,"MEAN_ANOMALY":254.1895,"EPHEMERIS_TYPE":0,"CLASSIFICATION_TYPE":"U","NORAD_CAT_ID":48235,"ELEMENT_SET_NO":999,"REV_AT_EPOCH":21346,"BSTAR":0.00069608565,"MEAN_MOTION_DOT":2.71e-6,"MEAN_MOTION_DDOT":0},{"OBJECT_NAME":"ONEWEB-0197","OBJECT_ID":"2021-031AC","EPOCH":"2025-09-25T06:15:00.768384","MEAN_MOTION":13.14504672,"ECCENTRICITY":0.00020588,"INCLINATION":87.9072,"RA_OF_ASC_NODE":342.4478,"ARG_OF_PERICENTER":92.0582,"MEAN_ANOMALY":268.0784,"EPHEMERIS_TYPE":0,"CLASSIFICATION_TYPE":"U","NORAD_CAT_ID":48236,"ELEMENT_SET_NO":999,"REV_AT_EPOCH":21338,"BSTAR":0.00015503002,"MEAN_MOTION_DOT":7.0e-7,"MEAN_MOTION_DDOT":0},{"OBJECT_NAME":"ONEWEB-0194","OBJECT_ID":"2021-031AD","EPOCH":"2025-09-25T05:45:29.544192","MEAN_MOTION":13.14503445,"ECCENTRICITY":0.00015971,"INCLINATION":87.9079,"RA_OF_ASC_NODE":342.4667,"ARG_OF_PERICENTER":98.2193,"MEAN_ANOMALY":261.9118,"EPHEMERIS_TYPE":0,"CLASSIFICATION_TYPE":"U","NORAD_CAT_ID":48237,"ELEMENT_SET_NO":999,"REV_AT_EPOCH":21355,"BSTAR":-0.00076536558,"MEAN_MOTION_DOT":-2.71e-6,"MEAN_MOTION_DDOT":0},{"OBJECT_NAME":"ONEWEB-0193","OBJECT_ID":"2021-031AE","EPOCH":"2025-09-25T06:08:20.493600","MEAN_MOTION":13.14504749,"ECCENTRICITY":0.00014305,"INCLINATION":87.9063,"RA_OF_ASC_NODE":342.4633,"ARG_OF_PERICENTER":93.7347,"MEAN_ANOMALY":266.3947,"EPHEMERIS_TYPE":0,"CLASSIFICATION_TYPE":"U","NORAD_CAT_ID":48238,"ELEMENT_SET_NO":999,"REV_AT_EPOCH":21350,"BSTAR":1.6367425e-5,"MEAN_MOTION_DOT":1.9e-7,"MEAN_MOTION_DDOT":0},{"OBJECT_NAME":"ONEWEB-0191","OBJECT_ID":"2021-031AF","EPOCH":"2025-09-25T06:24:19.504224","MEAN_MOTION":13.14501594,"ECCENTRICITY":0.00018601,"INCLINATION":87.9083,"RA_OF_ASC_NODE":342.4407,"ARG_OF_PERICENTER":98.1914,"MEAN_ANOMALY":261.9427,"EPHEMERIS_TYPE":0,"CLASSIFICATION_TYPE":"U","NORAD_CAT_ID":48239,"ELEMENT_SET_NO":999,"REV_AT_EPOCH":21336,"BSTAR":0.00047459658,"MEAN_MOTION_DOT":1.89e-6,"MEAN_MOTION_DDOT":0},{"OBJECT_NAME":"ONEWEB-0195","OBJECT_ID":"2021-031AG","EPOCH":"2025-09-24T17:03:57.003552","MEAN_MOTION":13.14501912,"ECCENTRICITY":0.00020226,"INCLINATION":87.9082,"RA_OF_ASC_NODE":342.5477,"ARG_OF_PERICENTER":110.8178,"MEAN_ANOMALY":249.3169,"EPHEMERIS_TYPE":0,"CLASSIFICATION_TYPE":"U","NORAD_CAT_ID":48240,"ELEMENT_SET_NO":999,"REV_AT_EPOCH":21327,"BSTAR":-0.00037243139,"MEAN_MOTION_DOT":-1.25e-6,"MEAN_MOTION_DDOT":0},{"OBJECT_NAME":"ONEWEB-0201","OBJECT_ID":"2021-031AH","EPOCH":"2025-09-24T18:36:36.986112","MEAN_MOTION":13.14500743,"ECCENTRICITY":0.00021814,"INCLINATION":87.908,"RA_OF_ASC_NODE":342.584,"ARG_OF_PERICENTER":99.8178,"MEAN_ANOMALY":260.3198,"EPHEMERIS_TYPE":0,"CLASSIFICATION_TYPE":"U","NORAD_CAT_ID":48241,"ELEMENT_SET_NO":999,"REV_AT_EPOCH":21351,"BSTAR":-0.00072048229,"MEAN_MOTION_DOT":-2.54e-6,"MEAN_MOTION_DDOT":0},{"OBJECT_NAME":"ONEWEB-0207","OBJECT_ID":"2021-031AJ","EPOCH":"2025-09-25T05:05:32.181792","MEAN_MOTION":13.14504058,"ECCENTRICITY":0.00020418,"INCLINATION":87.9073,"RA_OF_ASC_NODE":342.4545,"ARG_OF_PERICENTER":97.3964,"MEAN_ANOMALY":262.7398,"EPHEMERIS_TYPE":0,"CLASSIFICATION_TYPE":"U","NORAD_CAT_ID":48242,"ELEMENT_SET_NO":999,"REV_AT_EPOCH":21348,"BSTAR":0.00048118593,"MEAN_MOTION_DOT":1.91e-6,"MEAN_MOTION_DDOT":0},{"OBJECT_NAME":"ONEWEB-0208","OBJECT_ID":"2021-031AK","EPOCH":"2025-09-25T06:28:53.720544","MEAN_MOTION":13.14501107,"ECCENTRICITY":0.00018984,"INCLINATION":87.9077,"RA_OF_ASC_NODE":342.4586,"ARG_OF_PERICENTER":105.0514,"MEAN_ANOMALY":255.0826,"EPHEMERIS_TYPE":0,"CLASSIFICATION_TYPE":"U","NORAD_CAT_ID":48243,"ELEMENT_SET_NO":999,"REV_AT_EPOCH":21350,"BSTAR":0.00045184792,"MEAN_MOTION_DOT":1.8e-6,"MEAN_MOTION_DDOT":0},{"OBJECT_NAME":"ONEWEB-0200","OBJECT_ID":"2021-031AL","EPOCH":"2025-09-24T18:38:42.298944","MEAN_MOTION":13.14504382,"ECCENTRICITY":0.00018831,"INCLINATION":87.9074,"RA_OF_ASC_NODE":342.5461,"ARG_OF_PERICENTER":102.9375,"MEAN_ANOMALY":257.1966,"EPHEMERIS_TYPE":0,"CLASSIFICATION_TYPE":"U","NORAD_CAT_ID":48244,"ELEMENT_SET_NO":999,"REV_AT_EPOCH":21336,"BSTAR":-0.00073177119,"MEAN_MOTION_DOT":-2.59e-6,"MEAN_MOTION_DDOT":0},{"OBJECT_NAME":"ONEWEB-0217","OBJECT_ID":"2021-031AM","EPOCH":"2025-09-25T05:59:11.658336","MEAN_MOTION":13.14503163,"ECCENTRICITY":0.00018981,"INCLINATION":87.9083,"RA_OF_ASC_NODE":342.4401,"ARG_OF_PERICENTER":110.0838,"MEAN_ANOMALY":250.0496,"EPHEMERIS_TYPE":0,"CLASSIFICATION_TYPE":"U","NORAD_CAT_ID":48245,"ELEMENT_SET_NO":999,"REV_AT_EPOCH":21337,"BSTAR":-0.00036656757,"MEAN_MOTION_DOT":-1.23e-6,"MEAN_MOTION_DDOT":0},{"OBJECT_NAME":"ONEWEB-0211","OBJECT_ID":"2021-045A","EPOCH":"2025-09-25T04:14:21.927552","MEAN_MOTION":13.16085091,"ECCENTRICITY":0.00016208,"INCLINATION":87.9015,"RA_OF_ASC_NODE":312.0148,"ARG_OF_PERICENTER":103.9381,"MEAN_ANOMALY":256.193,"EPHEMERIS_TYPE":0,"CLASSIFICATION_TYPE":"U","NORAD_CAT_ID":48767,"ELEMENT_SET_NO":999,"REV_AT_EPOCH":20958,"BSTAR":0.00028599181,"MEAN_MOTION_DOT":1.21e-6,"MEAN_MOTION_DDOT":0},{"OBJECT_NAME":"ONEWEB-0223","OBJECT_ID":"2021-045B","EPOCH":"2025-09-25T03:12:12.404160","MEAN_MOTION":13.15547353,"ECCENTRICITY":0.00014423,"INCLINATION":87.9006,"RA_OF_ASC_NODE":312.0779,"ARG_OF_PERICENTER":105.8679,"MEAN_ANOMALY":254.261,"EPHEMERIS_TYPE":0,"CLASSIFICATION_TYPE":"U","NORAD_CAT_ID":48768,"ELEMENT_SET_NO":999,"REV_AT_EPOCH":20955,"BSTAR":0.00031648314,"MEAN_MOTION_DOT":1.32e-6,"MEAN_MOTION_DDOT":0},{"OBJECT_NAME":"ONEWEB-0230","OBJECT_ID":"2021-045C","EPOCH":"2025-09-25T04:20:39.111936","MEAN_MOTION":13.15550068,"ECCENTRICITY":0.0001851,"INCLINATION":87.9001,"RA_OF_ASC_NODE":312.1013,"ARG_OF_PERICENTER":92.2328,"MEAN_ANOMALY":267.9014,"EPHEMERIS_TYPE":0,"CLASSIFICATION_TYPE":"U","NORAD_CAT_ID":48769,"ELEMENT_SET_NO":999,"REV_AT_EPOCH":20982,"BSTAR":0.0003945537,"MEAN_MOTION_DOT":1.61e-6,"MEAN_MOTION_DDOT":0},{"OBJECT_NAME":"ONEWEB-0237","OBJECT_ID":"2021-045D","EPOCH":"2025-09-25T02:15:09.180864","MEAN_MOTION":13.155468,"ECCENTRICITY":0.00015911,"INCLINATION":87.9009,"RA_OF_ASC_NODE":312.1154,"ARG_OF_PERICENTER":98.5168,"MEAN_ANOMALY":261.6143,"EPHEMERIS_TYPE":0,"CLASSIFICATION_TYPE":"U","NORAD_CAT_ID":48770,"ELEMENT_SET_NO":999,"REV_AT_EPOCH":20953,"BSTAR":5.2576506e-5,"MEAN_MOTION_DOT":3.3e-7,"MEAN_MOTION_DDOT":0}]
